start=new Date('2021-08-30T00:00:00.000Z').valueOf();
sats=[{"ELEMENT_SET_NO":"999","OBJECT_ID":"2019-074BJ","RA_OF_ASC_NODE":"83.1008","SITE":"AFETR","COUNTRY_CODE":"US","MEAN_MOTION":"15.40054026","PERIOD":"93.503","MEAN_MOTION_DDOT":"0.0000000000000","DECAY_DATE":null,"BSTAR":"0.00849300000000","FILE":"3105271","ARG_OF_PERICENTER":"306.8676","RCS_SIZE":"LARGE","APOAPSIS":"447.637","INCLINATION":"53.0001","REF_FRAME":"TEME","PERIAPSIS":"444.267","NORAD_CAT_ID":"44769","TIME_SYSTEM":"UTC","REV_AT_EPOCH":"9919","MEAN_ELEMENT_THEORY":"SGP4","LAUNCH_DATE":"2019-11-11","SEMIMAJOR_AXIS":"6824.087","ECCENTRICITY":"0.00024690","OBJECT_TYPE":"PAYLOAD","CLASSIFICATION_TYPE":"U","CENTER_NAME":"EARTH","EPHEMERIS_TYPE":"0","MEAN_MOTION_DOT":"0.00361052","MEAN_ANOMALY":"53.2101","TLE_LINE1":"1 44769U 19074BJ  21241.87524630  .00361052  00000-0  84930-2 0  9999","TLE_LINE2":"2 44769  53.0001  83.1008 0002469 306.8676  53.2101 15.40054026 99195","GP_ID":"183697790","EPOCH":"2021-08-29T21:00:21.280320","OBJECT_NAME":"STARLINK-1064"},{"FILE":"3105271","DECAY_DATE":null,"BSTAR":"0.00063373000000","MEAN_MOTION_DDOT":"0.0000000000000","INCLINATION":"53.0029","APOAPSIS":"541.917","RCS_SIZE":"LARGE","ARG_OF_PERICENTER":"101.2646","RA_OF_ASC_NODE":"82.1931","OBJECT_ID":"2019-074BK","ELEMENT_SET_NO":"999","PERIOD":"95.466","MEAN_MOTION":"15.08387587","COUNTRY_CODE":"US","SITE":"AFETR","TLE_LINE1":"1 44770U 19074BK  21241.81362414  .00009690  00000-0  63373-3 0  9991","MEAN_MOTION_DOT":"0.00009690","MEAN_ANOMALY":"258.8471","EPHEMERIS_TYPE":"0","OBJECT_NAME":"STARLINK-1065","EPOCH":"2021-08-29T19:31:37.125696","TLE_LINE2":"2 44770  53.0029  82.1931 0001140 101.2646 258.8471 15.08387587 99110","GP_ID":"183699042","LAUNCH_DATE":"2019-11-11","SEMIMAJOR_AXIS":"6919.264","MEAN_ELEMENT_THEORY":"SGP4","REV_AT_EPOCH":"9911","PERIAPSIS":"540.340","NORAD_CAT_ID":"44770","TIME_SYSTEM":"UTC","REF_FRAME":"TEME","CLASSIFICATION_TYPE":"U","CENTER_NAME":"EARTH","OBJECT_TYPE":"PAYLOAD","ECCENTRICITY":"0.00011400"},{"ELEMENT_SET_NO":"999","OBJECT_ID":"2019-074BL","RA_OF_ASC_NODE":"86.5290","SITE":"AFETR","MEAN_MOTION":"15.06407238","COUNTRY_CODE":"US","PERIOD":"95.592","MEAN_MOTION_DDOT":"0.0000000000000","DECAY_DATE":null,"BSTAR":"0.00003860500000","FILE":"3105271","ARG_OF_PERICENTER":"84.8013","RCS_SIZE":"LARGE","APOAPSIS":"548.621","INCLINATION":"53.0559","REF_FRAME":"TEME","PERIAPSIS":"545.762","NORAD_CAT_ID":"44771","TIME_SYSTEM":"UTC","MEAN_ELEMENT_THEORY":"SGP4","REV_AT_EPOCH":"9907","LAUNCH_DATE":"2019-11-11","SEMIMAJOR_AXIS":"6925.326","ECCENTRICITY":"0.00020640","OBJECT_TYPE":"PAYLOAD","CLASSIFICATION_TYPE":"U","CENTER_NAME":"EARTH","EPHEMERIS_TYPE":"0","MEAN_ANOMALY":"275.3211","MEAN_MOTION_DOT":"0.00000293","TLE_LINE1":"1 44771U 19074BL  21241.84498383  .00000293  00000-0  38605-4 0  9991","TLE_LINE2":"2 44771  53.0559  86.5290 0002064  84.8013 275.3211 15.06407238 99070","GP_ID":"183698792","EPOCH":"2021-08-29T20:16:46.602912","OBJECT_NAME":"STARLINK-1067"},{"MEAN_MOTION_DOT":"0.00000042","MEAN_ANOMALY":"264.9390","EPHEMERIS_TYPE":"0","TLE_LINE1":"1 44772U 19074BM  21241.83578021  .00000042  00000-0  21759-4 0  9993","TLE_LINE2":"2 44772  53.0552  66.5724 0001991  95.1826 264.9390 15.06397409 99349","EPOCH":"2021-08-29T20:03:31.410144","GP_ID":"183697540","OBJECT_NAME":"STARLINK-1068","TIME_SYSTEM":"UTC","NORAD_CAT_ID":"44772","PERIAPSIS":"545.843","REF_FRAME":"TEME","SEMIMAJOR_AXIS":"6925.356","LAUNCH_DATE":"2019-11-11","REV_AT_EPOCH":"9934","MEAN_ELEMENT_THEORY":"SGP4","ECCENTRICITY":"0.00019910","CENTER_NAME":"EARTH","CLASSIFICATION_TYPE":"U","OBJECT_TYPE":"PAYLOAD","MEAN_MOTION_DDOT":"0.0000000000000","FILE":"3105271","BSTAR":"0.00002175900000","DECAY_DATE":null,"ARG_OF_PERICENTER":"95.1826","INCLINATION":"53.0552","APOAPSIS":"548.600","RCS_SIZE":"LARGE","OBJECT_ID":"2019-074BM","RA_OF_ASC_NODE":"66.5724","ELEMENT_SET_NO":"999","SITE":"AFETR","PERIOD":"95.592","COUNTRY_CODE":"US","MEAN_MOTION":"15.06397409"},{"APOAPSIS":"548.396","RCS_SIZE":"LARGE","INCLINATION":"53.0550","ARG_OF_PERICENTER":"46.4387","DECAY_DATE":null,"BSTAR":"0.00007243600000","FILE":"3105060","MEAN_MOTION_DDOT":"0.0000000000000","COUNTRY_CODE":"US","MEAN_MOTION":"15.06411435","PERIOD":"95.591","SITE":"AFETR","ELEMENT_SET_NO":"999","OBJECT_ID":"2020-001A","RA_OF_ASC_NODE":"207.9911","OBJECT_NAME":"STARLINK-1073","EPOCH":"2021-08-29T12:29:41.660448","TLE_LINE2":"2 44914  53.0550 207.9911 0001758  46.4387 313.6747 15.06411435 90677","GP_ID":"183670418","TLE_LINE1":"1 44914U 20001A   21241.52062107  .00000798  00000-0  72436-4 0  9998","EPHEMERIS_TYPE":"0","MEAN_MOTION_DOT":"0.00000798","MEAN_ANOMALY":"313.6747","OBJECT_TYPE":"PAYLOAD","CLASSIFICATION_TYPE":"U","CENTER_NAME":"EARTH","ECCENTRICITY":"0.00017580","REV_AT_EPOCH":"9067","MEAN_ELEMENT_THEORY":"SGP4","LAUNCH_DATE":"2020-01-07","SEMIMAJOR_AXIS":"6925.314","REF_FRAME":"TEME","PERIAPSIS":"545.961","NORAD_CAT_ID":"44914","TIME_SYSTEM":"UTC"},{"TLE_LINE1":"1 44915U 20001B   21241.88184530  .00001842  00000-0  14248-3 0  9990","MEAN_MOTION_DOT":"0.00001842","MEAN_ANOMALY":"310.7126","EPHEMERIS_TYPE":"0","OBJECT_NAME":"STARLINK-1084","EPOCH":"2021-08-29T21:09:51.433920","TLE_LINE2":"2 44915  53.0546 206.3724 0001360  49.3981 310.7126 15.06405160 90733","GP_ID":"183699307","LAUNCH_DATE":"2020-01-07","SEMIMAJOR_AXIS":"6925.333","MEAN_ELEMENT_THEORY":"SGP4","REV_AT_EPOCH":"9073","PERIAPSIS":"546.256","NORAD_CAT_ID":"44915","TIME_SYSTEM":"UTC","REF_FRAME":"TEME","CLASSIFICATION_TYPE":"U","CENTER_NAME":"EARTH","OBJECT_TYPE":"PAYLOAD","ECCENTRICITY":"0.00013600","FILE":"3105271","DECAY_DATE":null,"BSTAR":"0.00014248000000","MEAN_MOTION_DDOT":"0.0000000000000","INCLINATION":"53.0546","APOAPSIS":"548.140","RCS_SIZE":"LARGE","ARG_OF_PERICENTER":"49.3981","OBJECT_ID":"2020-001B","RA_OF_ASC_NODE":"206.3724","ELEMENT_SET_NO":"999","PERIOD":"95.592","COUNTRY_CODE":"US","MEAN_MOTION":"15.06405160","SITE":"AFETR"},{"INCLINATION":"53.0537","RCS_SIZE":"LARGE","APOAPSIS":"355.439","ARG_OF_PERICENTER":"61.5942","FILE":"3105060","DECAY_DATE":null,"BSTAR":"0.00007092200000","MEAN_MOTION_DDOT":"0.0000000000000","PERIOD":"91.633","COUNTRY_CODE":"US","MEAN_MOTION":"15.71493900","SITE":"AFETR","OBJECT_ID":"2020-001C","RA_OF_ASC_NODE":"197.0695","ELEMENT_SET_NO":"999","OBJECT_NAME":"STARLINK-1097","TLE_LINE2":"2 44916  53.0537 197.0695 0001204  61.5942 298.5196 15.71493900 90817","EPOCH":"2021-08-29T07:35:48.768288","GP_ID":"183669917","TLE_LINE1":"1 44916U 20001C   21241.31653667  .00008664  00000-0  70922-4 0  9992","MEAN_MOTION_DOT":"0.00008664","MEAN_ANOMALY":"298.5196","EPHEMERIS_TYPE":"0","CLASSIFICATION_TYPE":"U","CENTER_NAME":"EARTH","OBJECT_TYPE":"PAYLOAD","ECCENTRICITY":"0.00012040","LAUNCH_DATE":"2020-01-07","SEMIMAJOR_AXIS":"6732.764","REV_AT_EPOCH":"9081","MEAN_ELEMENT_THEORY":"SGP4","PERIAPSIS":"353.818","TIME_SYSTEM":"UTC","NORAD_CAT_ID":"44916","REF_FRAME":"TEME"},{"TLE_LINE1":"1 44917U 20001D   21241.88553567  .00000883  00000-0  78156-4 0  9995","MEAN_MOTION_DOT":"0.00000883","MEAN_ANOMALY":"304.5609","EPHEMERIS_TYPE":"0","OBJECT_NAME":"STARLINK-1098","GP_ID":"183697805","TLE_LINE2":"2 44917  53.0552 206.3558 0001474  55.5519 304.5609 15.06407121 90735","EPOCH":"2021-08-29T21:15:10.281888","LAUNCH_DATE":"2020-01-07","SEMIMAJOR_AXIS":"6925.327","MEAN_ELEMENT_THEORY":"SGP4","REV_AT_EPOCH":"9073","PERIAPSIS":"546.171","NORAD_CAT_ID":"44917","TIME_SYSTEM":"UTC","REF_FRAME":"TEME","CLASSIFICATION_TYPE":"U","CENTER_NAME":"EARTH","OBJECT_TYPE":"PAYLOAD","ECCENTRICITY":"0.00014740","FILE":"3105271","DECAY_DATE":null,"BSTAR":"0.00007815600000","MEAN_MOTION_DDOT":"0.0000000000000","INCLINATION":"53.0552","RCS_SIZE":"LARGE","APOAPSIS":"548.213","ARG_OF_PERICENTER":"55.5519","OBJECT_ID":"2020-001D","RA_OF_ASC_NODE":"206.3558","ELEMENT_SET_NO":"999","PERIOD":"95.592","COUNTRY_CODE":"US","MEAN_MOTION":"15.06407121","SITE":"AFETR"},{"TLE_LINE1":"1 44918U 20001E   21241.89659116  .00002173  00000-0  16464-3 0  9991","EPHEMERIS_TYPE":"0","MEAN_MOTION_DOT":"0.00002173","MEAN_ANOMALY":"307.3085","OBJECT_NAME":"STARLINK-1099","EPOCH":"2021-08-29T21:31:05.476224","TLE_LINE2":"2 44918  53.0543 206.3056 0001183  52.8012 307.3085 15.06417730 91472","GP_ID":"183699057","REV_AT_EPOCH":"9147","MEAN_ELEMENT_THEORY":"SGP4","LAUNCH_DATE":"2020-01-07","SEMIMAJOR_AXIS":"6925.294","REF_FRAME":"TEME","PERIAPSIS":"546.340","NORAD_CAT_ID":"44918","TIME_SYSTEM":"UTC","OBJECT_TYPE":"PAYLOAD","CLASSIFICATION_TYPE":"U","CENTER_NAME":"EARTH","ECCENTRICITY":"0.00011830","DECAY_DATE":null,"BSTAR":"0.00016464000000","FILE":"3105271","MEAN_MOTION_DDOT":"0.0000000000000","APOAPSIS":"547.978","RCS_SIZE":"LARGE","INCLINATION":"53.0543","ARG_OF_PERICENTER":"52.8012","ELEMENT_SET_NO":"999","OBJECT_ID":"2020-001E","RA_OF_ASC_NODE":"206.3056","MEAN_MOTION":"15.06417730","COUNTRY_CODE":"US","PERIOD":"95.591","SITE":"AFETR"},{"TLE_LINE1":"1 44919U 20001F   21241.87063689  .00645286  00000-0  10988-1 0  9995","MEAN_ANOMALY":"269.2156","MEAN_MOTION_DOT":"0.00645286","EPHEMERIS_TYPE":"0","OBJECT_NAME":"STARLINK-1101","EPOCH":"2021-08-29T20:53:43.027296","TLE_LINE2":"2 44919  53.0524 196.8576 0002014  90.9082 269.2156 15.48492580 90865","GP_ID":"183698807","LAUNCH_DATE":"2020-01-07","SEMIMAJOR_AXIS":"6799.272","MEAN_ELEMENT_THEORY":"SGP4","REV_AT_EPOCH":"9086","PERIAPSIS":"419.768","NORAD_CAT_ID":"44919","TIME_SYSTEM":"UTC","REF_FRAME":"TEME","CLASSIFICATION_TYPE":"U","CENTER_NAME":"EARTH","OBJECT_TYPE":"PAYLOAD","ECCENTRICITY":"0.00020140","FILE":"3105271","DECAY_DATE":null,"BSTAR":"0.01098800000000","MEAN_MOTION_DDOT":"0.0000000000000","INCLINATION":"53.0524","RCS_SIZE":"LARGE","APOAPSIS":"422.506","ARG_OF_PERICENTER":"90.9082","OBJECT_ID":"2020-001F","RA_OF_ASC_NODE":"196.8576","ELEMENT_SET_NO":"999","PERIOD":"92.994","COUNTRY_CODE":"US","MEAN_MOTION":"15.48492580","SITE":"AFETR"}];
